STARLINK-3119
1 19145C 21082R   21326.12743392  .00009742  00000-0  81631-4 0  3260
2 19145  69.9977 292.8966 0003286 287.9394  31.0993 15.69731348    18
